[{"OBJECT_NAME":"GHGSAT-C3","OBJECT_ID":"2022-057F","EPOCH":"2026-03-09T22:30:13.234752","MEAN_MOTION":15.32943835,"ECCENTRICITY":0.00073198,"INCLINATION":97.6431,"RA_OF_ASC_NODE":211.0668,"ARG_OF_PERICENTER":112.4588,"MEAN_ANOMALY":247.7429,"EPHEMERIS_TYPE":0,"CLASSIFICATION_TYPE":"U","NORAD_CAT_ID":52737,"ELEMENT_SET_NO":999,"REV_AT_EPOCH":21032,"BSTAR":0.00031249517,"MEAN_MOTION_DOT":9.871e-5,"MEAN_MOTION_DDOT":0},{"OBJECT_NAME":"STARLINK-34792","OBJECT_ID":"2025-167H","EPOCH":"2026-03-09T07:03:26.373600","MEAN_MOTION":15.30187314,"ECCENTRICITY":0.00013155,"INCLINATION":53.1617,"RA_OF_ASC_NODE":28.8965,"ARG_OF_PERICENTER":113.0373,"MEAN_ANOMALY":247.0767,"EPHEMERIS_TYPE":0,"CLASSIFICATION_TYPE":"U","NORAD_CAT_ID":65085,"ELEMENT_SET_NO":999,"REV_AT_EPOCH":3341,"BSTAR":0.0012552619,"MEAN_MOTION_DOT":0.00036989,"MEAN_MOTION_DDOT":0}]
